KUIPER-00268            
1 67790U 26030AC  26062.77056975  .00038996  00000+0  11104-2 0  9995
2 67790  51.8845 247.6539 0002248  34.2866 325.8265 15.35724925  4180
KUIPER-00270            
1 67791U 26030AD  26062.78805168  .00042305  00000+0  12541-2 0  9998
2 67791  51.8805 247.7587 0009993  39.9106 320.2612 15.34379653  4182
KUIPER-00274            
1 67792U 26030AE  26062.74573472 -.00001908  00000+0 -49200-4 0  9995
2 67792  51.8816 248.2231 0017486  52.5690 307.6883 15.31589024  4172
KUIPER-00275            
1 67793U 26030AF  26062.72038647  .00044217  00000+0  13073-2 0  9999
2 67793  51.8838 248.0646 0008935  36.1877 323.9712 15.34451831  4178
KUIPER-00276            
1 67794U 26030AG  26062.74965016  .00000730  00000+0  35824-4 0  9993
2 67794  51.8813 248.2468 0018637  49.8166 310.4447 15.31397012  4171
KUIPER-00279            
1 67795U 26030AH  26062.77945885  .00029057  00000+0  84768-3 0  9992
2 67795  51.8793 247.7013 0006260  32.2292 327.9076 15.35096254  4184
