[{"OBJECT_NAME":"KUIPER-00268","OBJECT_ID":"2026-030AC","EPOCH":"2026-03-03T18:29:37.226400","MEAN_MOTION":15.35724925,"ECCENTRICITY":0.0002248,"INCLINATION":51.8845,"RA_OF_ASC_NODE":247.6539,"ARG_OF_PERICENTER":34.2866,"MEAN_ANOMALY":325.8265,"EPHEMERIS_TYPE":0,"CLASSIFICATION_TYPE":"U","NORAD_CAT_ID":67790,"ELEMENT_SET_NO":999,"REV_AT_EPOCH":418,"BSTAR":0.0011104,"MEAN_MOTION_DOT":0.00038996,"MEAN_MOTION_DDOT":0},{"OBJECT_NAME":"KUIPER-00270","OBJECT_ID":"2026-030AD","EPOCH":"2026-03-03T18:54:47.665152","MEAN_MOTION":15.34379653,"ECCENTRICITY":0.0009993,"INCLINATION":51.8805,"RA_OF_ASC_NODE":247.7587,"ARG_OF_PERICENTER":39.9106,"MEAN_ANOMALY":320.2612,"EPHEMERIS_TYPE":0,"CLASSIFICATION_TYPE":"U","NORAD_CAT_ID":67791,"ELEMENT_SET_NO":999,"REV_AT_EPOCH":418,"BSTAR":0.0012541,"MEAN_MOTION_DOT":0.00042305,"MEAN_MOTION_DDOT":0},{"OBJECT_NAME":"KUIPER-00274","OBJECT_ID":"2026-030AE","EPOCH":"2026-03-03T17:53:51.479808","MEAN_MOTION":15.31589024,"ECCENTRICITY":0.0017486,"INCLINATION":51.8816,"RA_OF_ASC_NODE":248.2231,"ARG_OF_PERICENTER":52.569,"MEAN_ANOMALY":307.6883,"EPHEMERIS_TYPE":0,"CLASSIFICATION_TYPE":"U","NORAD_CAT_ID":67792,"ELEMENT_SET_NO":999,"REV_AT_EPOCH":417,"BSTAR":-4.92e-5,"MEAN_MOTION_DOT":-1.908e-5,"MEAN_MOTION_DDOT":0},{"OBJECT_NAME":"KUIPER-00275","OBJECT_ID":"2026-030AF","EPOCH":"2026-03-03T17:17:21.391008","MEAN_MOTION":15.34451831,"ECCENTRICITY":0.0008935,"INCLINATION":51.8838,"RA_OF_ASC_NODE":248.0646,"ARG_OF_PERICENTER":36.1877,"MEAN_ANOMALY":323.9712,"EPHEMERIS_TYPE":0,"CLASSIFICATION_TYPE":"U","NORAD_CAT_ID":67793,"ELEMENT_SET_NO":999,"REV_AT_EPOCH":417,"BSTAR":0.0013073,"MEAN_MOTION_DOT":0.00044217,"MEAN_MOTION_DDOT":0},{"OBJECT_NAME":"KUIPER-00276","OBJECT_ID":"2026-030AG","EPOCH":"2026-03-03T17:59:29.773824","MEAN_MOTION":15.31397012,"ECCENTRICITY":0.0018637,"INCLINATION":51.8813,"RA_OF_ASC_NODE":248.2468,"ARG_OF_PERICENTER":49.8166,"MEAN_ANOMALY":310.4447,"EPHEMERIS_TYPE":0,"CLASSIFICATION_TYPE":"U","NORAD_CAT_ID":67794,"ELEMENT_SET_NO":999,"REV_AT_EPOCH":417,"BSTAR":3.5824e-5,"MEAN_MOTION_DOT":7.3e-6,"MEAN_MOTION_DDOT":0},{"OBJECT_NAME":"KUIPER-00279","OBJECT_ID":"2026-030AH","EPOCH":"2026-03-03T18:42:25.244640","MEAN_MOTION":15.35096254,"ECCENTRICITY":0.000626,"INCLINATION":51.8793,"RA_OF_ASC_NODE":247.7013,"ARG_OF_PERICENTER":32.2292,"MEAN_ANOMALY":327.9076,"EPHEMERIS_TYPE":0,"CLASSIFICATION_TYPE":"U","NORAD_CAT_ID":67795,"ELEMENT_SET_NO":999,"REV_AT_EPOCH":418,"BSTAR":0.00084768,"MEAN_MOTION_DOT":0.00029057,"MEAN_MOTION_DDOT":0}]
